     2              NAVIGATION DATA                         RINEX VERSION / TYPE
CCRINEXN V1.6.0 UX  CDDIS               27-NOV-15 17:31     PGM / RUN BY / DATE 
IGS BROADCAST EPHEMERIS FILE                                COMMENT             
    0.1956D-07 -0.1490D-07 -0.1192D-06  0.1788D-06          ION ALPHA           
    0.1290D+06 -0.1475D+06  0.0000D+00 -0.6554D+05          ION BETA            
   -0.186264514923D-08-0.710542735760D-14   503808     1872 DELTA-UTC: A0,A1,T,W
    17                                                      LEAP SECONDS        
                                                            END OF HEADER       
18 15 11 26  0  0  0.0 0.456530600786D-03 0.375166564481D-11 0.000000000000D+00
    0.530000000000D+02-0.360937500000D+02 0.588524514408D-08-0.870950401186D+00
   -0.158697366715D-05 0.163934720913D-01 0.647641718388D-05 0.515363502502D+04
    0.345600000000D+06-0.875443220139D-07 0.211229750924D+01 0.320374965668D-06
    0.924664971413D+00 0.238031250000D+03-0.192833023867D+01-0.886786938236D-08
   -0.503949562951D-09 0.100000000000D+01 0.187200000000D+04 0.000000000000D+00
    0.200000000000D+01 0.000000000000D+00-0.111758708954D-07 0.530000000000D+02
    0.344670000000D+06 0.400000000000D+01 0.000000000000D+00 0.000000000000D+00
19 15 11 26  0  0  0.0-0.523125287145D-03-0.341060513165D-12 0.000000000000D+00
    0.110000000000D+02-0.598125000000D+02 0.389730519555D-08 0.178245233416D+01
   -0.309757888317D-05 0.113341154065D-01 0.132601708174D-04 0.515517724228D+04
    0.345600000000D+06-0.204890966415D-06 0.138206031487D+00-0.260770320892D-07
    0.971888578512D+00 0.135625000000D+03 0.660959299928D+00-0.763888961899D-08
    0.223937899341D-09 0.100000000000D+01 0.187200000000D+04 0.000000000000D+00
    0.200000000000D+01 0.000000000000D+00-0.149011611938D-07 0.110000000000D+02
    0.338448000000D+06 0.400000000000D+01 0.000000000000D+00 0.000000000000D+00
20 15 11 26  0  0  0.0 0.373750925064D-03 0.284217094304D-11 0.000000000000D+00
    0.500000000000D+02-0.390000000000D+02 0.575881130618D-08-0.312738111396D+01
   -0.219605863094D-05 0.502368679736D-02 0.597722828388D-05 0.515365983963D+04
    0.345600000000D+06 0.968575477600D-07 0.206020172516D+01-0.502914190292D-07
    0.925851577915D+00 0.244781250000D+03 0.128007313897D+01-0.854999899892D-08
   -0.493949146393D-09 0.100000000000D+01 0.187200000000D+04 0.000000000000D+00
    0.200000000000D+01 0.000000000000D+00-0.838190317154D-08 0.500000000000D+02
    0.339558000000D+06 0.400000000000D+01 0.000000000000D+00 0.000000000000D+00
21 15 11 26  0  0  0.0-0.495753716677D-03-0.238742359215D-11 0.000000000000D+00
    0.870000000000D+02 0.365625000000D+02 0.553165898723D-08 0.445010302408D-01
    0.207498669624D-05 0.226936910767D-01 0.701099634171D-05 0.515370611763D+04
    0.345600000000D+06-0.333413481712D-06 0.106918228604D+01 0.214204192162D-06
    0.934740505157D+00 0.235718750000D+03-0.185867284281D+01-0.885394023072D-08
    0.609311094538D-09 0.100000000000D+01 0.187200000000D+04 0.000000000000D+00
    0.200000000000D+01 0.000000000000D+00-0.116415321827D-07 0.870000000000D+02
    0.339660000000D+06 0.400000000000D+01 0.000000000000D+00 0.000000000000D+00
22 15 11 26  0  0  0.0 0.413905829191D-03 0.363797880709D-11 0.000000000000D+00
    0.520000000000D+02-0.389062500000D+02 0.580845623123D-08-0.135593218690D+01
   -0.189058482647D-05 0.800515222363D-02 0.602006912231D-05 0.515366033936D+04
    0.345600000000D+06 0.163912773132D-06 0.211313210400D+01 0.139698386192D-06
    0.922501154653D+00 0.240406250000D+03-0.204892348696D+01-0.863464538193D-08
   -0.497520723735D-09 0.100000000000D+01 0.187200000000D+04 0.000000000000D+00
    0.200000000000D+01 0.000000000000D+00-0.176951289177D-07 0.520000000000D+02
    0.338418000000D+06 0.400000000000D+01 0.000000000000D+00 0.000000000000D+00
23 15 11 26  0  0  0.0-0.146419741213D-03-0.204636307899D-11 0.000000000000D+00
    0.890000000000D+02 0.794375000000D+02 0.449697303126D-08 0.263565870791D+01
    0.412017107010D-05 0.103934154613D-01 0.125803053379D-04 0.515377867127D+04
    0.345600000000D+06-0.113621354103D-06-0.309645300109D+01-0.145286321640D-06
    0.947634087255D+00 0.131875000000D+03-0.262216972255D+01-0.778139555493D-08
   -0.142863093678D-09 0.100000000000D+01 0.187200000000D+04 0.000000000000D+00
    0.200000000000D+01 0.000000000000D+00-0.200234353542D-07 0.890000000000D+02
    0.344346000000D+06 0.400000000000D+01 0.000000000000D+00 0.000000000000D+00
24 15 11 26  0  0  0.0-0.844756141305D-05-0.454747350886D-12 0.000000000000D+00
    0.250000000000D+02 0.135187500000D+03 0.507628287613D-08 0.201377821721D+01
    0.701285898685D-05 0.377163069788D-02 0.231154263020D-05 0.515364961433D+04
    0.345600000000D+06-0.838190317154D-07-0.207020970281D+01 0.558793544769D-07
    0.951469094816D+00 0.329062500000D+03 0.299394936098D+00-0.865678916145D-08
    0.363943731146D-09 0.100000000000D+01 0.187200000000D+04 0.000000000000D+00
    0.200000000000D+01 0.000000000000D+00 0.279396772385D-08 0.250000000000D+02
    0.344670000000D+06 0.400000000000D+01 0.000000000000D+00 0.000000000000D+00
25 15 11 26  0  0  0.0-0.731260515750D-04-0.591171556152D-11 0.000000000000D+00
    0.810000000000D+02-0.125343750000D+03 0.442339853802D-08-0.235051860796D-01
   -0.653602182865D-05 0.474217731971D-02 0.259838998318D-05 0.515359651756D+04
    0.345600000000D+06 0.204890966415D-07-0.100204275067D+01 0.102445483208D-06
    0.978460263997D+00 0.336156250000D+03 0.708728228758D+00-0.841499337539D-08
   -0.486091676241D-09 0.100000000000D+01 0.187200000000D+04 0.000000000000D+00
    0.200000000000D+01 0.000000000000D+00 0.558793544769D-08 0.810000000000D+02
    0.343686000000D+06 0.400000000000D+01 0.000000000000D+00 0.000000000000D+00
26 15 11 26  0  0  0.0-0.137968454510D-03-0.161435309565D-10 0.000000000000D+00
    0.270000000000D+02-0.117812500000D+03 0.469305262734D-08-0.292010435773D+00
   -0.616163015366D-05 0.426692771725D-03 0.263378024101D-05 0.515366886711D+04
    0.345600000000D+06 0.875443220139D-07-0.100780976392D+01-0.223517417908D-07
    0.960513379569D+00 0.331218750000D+03-0.344507763068D+00-0.843642283945D-08
   -0.453233164695D-09 0.100000000000D+01 0.187200000000D+04 0.000000000000D+00
    0.200000000000D+01 0.000000000000D+00 0.745058059692D-08 0.270000000000D+02
    0.338418000000D+06 0.400000000000D+01 0.000000000000D+00 0.000000000000D+00
27 15 11 26  0  0  0.0 0.390149652958D-04 0.318323145621D-11 0.000000000000D+00
    0.830000000000D+02-0.838125000000D+02 0.386837539779D-08-0.244700764033D+01
   -0.429339706898D-05 0.279811071232D-02 0.125672668219D-04 0.515371401405D+04
    0.345600000000D+06-0.186264514923D-07 0.402847247862D-01 0.186264514923D-07
    0.969769750871D+00 0.143125000000D+03 0.270592608503D+00-0.758031593051D-08
    0.243224412833D-09 0.100000000000D+01 0.187200000000D+04 0.000000000000D+00
    0.200000000000D+01 0.000000000000D+00 0.186264514923D-08 0.830000000000D+02
    0.345600000000D+06 0.000000000000D+00 0.000000000000D+00 0.000000000000D+00
28 15 11 26  0  0  0.0 0.483994372189D-03 0.272848410532D-11 0.000000000000D+00
    0.490000000000D+02-0.122656250000D+03 0.402445321512D-08-0.164573049158D+01
   -0.612065196037D-05 0.199928637594D-01 0.446662306786D-05 0.515369706535D+04
    0.345600000000D+06 0.184401869774D-06-0.929377447478D+00 0.437721610069D-06
    0.989327444156D+00 0.304406250000D+03-0.164636080885D+01-0.793247334485D-08
   -0.494306318099D-09 0.100000000000D+01 0.187200000000D+04 0.000000000000D+00
    0.280000000000D+01 0.000000000000D+00-0.111758708954D-07 0.490000000000D+02
    0.345600000000D+06 0.000000000000D+00 0.000000000000D+00 0.000000000000D+00
29 15 11 26  0  0  0.0 0.645888503641D-03 0.147792889038D-11 0.000000000000D+00
    0.110000000000D+02-0.846562500000D+02 0.376087094108D-08 0.117659159811D+00
   -0.439956784248D-05 0.882111140527D-03 0.135451555252D-04 0.515366640282D+04
    0.345600000000D+06 0.316649675369D-07 0.986300319939D-01 0.372529029846D-08
    0.975737985575D+00 0.127718750000D+03-0.555075239420D+00-0.757317259589D-08
    0.270011247052D-09 0.100000000000D+01 0.187200000000D+04 0.000000000000D+00
    0.200000000000D+01 0.000000000000D+00-0.102445483208D-07 0.110000000000D+02
    0.343020000000D+06 0.400000000000D+01 0.000000000000D+00 0.000000000000D+00
30 15 11 26  0  0  0.0 0.622444786131D-04 0.545696821064D-11 0.000000000000D+00
    0.640000000000D+02 0.985000000000D+02 0.499092234207D-08 0.959197810988D+00
    0.515207648277D-05 0.167425756808D-02 0.127963721752D-05 0.515366971970D+04
    0.345600000000D+06 0.428408384323D-07-0.197941085855D+01-0.931322574616D-08
    0.954048501732D+00 0.348187500000D+03-0.313275540247D+01-0.862107363275D-08
    0.208222952769D-09 0.100000000000D+01 0.187200000000D+04 0.000000000000D+00
    0.200000000000D+01 0.000000000000D+00 0.325962901115D-08 0.640000000000D+02
    0.345600000000D+06 0.000000000000D+00 0.000000000000D+00 0.000000000000D+00
31 15 11 26  0  0  0.0 0.293800141662D-03-0.159161572810D-11 0.000000000000D+00
    0.200000000000D+01 0.107781250000D+03 0.455233248006D-08 0.103264946922D+01
    0.556372106075D-05 0.828204106074D-02 0.222027301788D-05 0.515364134979D+04
    0.345600000000D+06 0.100582838059D-06-0.201763471943D+01-0.111758708954D-07
    0.973146423272D+00 0.337218750000D+03-0.495808756105D+00-0.837356307823D-08
    0.230366738556D-09 0.100000000000D+01 0.187200000000D+04 0.000000000000D+00
    0.200000000000D+01 0.000000000000D+00-0.135041773319D-07 0.200000000000D+01
    0.338442000000D+06 0.400000000000D+01 0.000000000000D+00 0.000000000000D+00
